[{"OBJECT_NAME":"STARLINK-32793","OBJECT_ID":"2025-022W","EPOCH":"2026-03-09T11:06:33.156864","MEAN_MOTION":15.3018261,"ECCENTRICITY":0.00013197,"INCLINATION":53.158,"RA_OF_ASC_NODE":130.8017,"ARG_OF_PERICENTER":72.4699,"MEAN_ANOMALY":287.6446,"EPHEMERIS_TYPE":0,"CLASSIFICATION_TYPE":"U","NORAD_CAT_ID":62874,"ELEMENT_SET_NO":999,"REV_AT_EPOCH":6186,"BSTAR":0.001221378,"MEAN_MOTION_DOT":0.0003597,"MEAN_MOTION_DDOT":0},{"OBJECT_NAME":"TRANSPORTER-1 OBJECT M","OBJECT_ID":"2021-006M","EPOCH":"2026-03-09T22:05:37.843296","MEAN_MOTION":15.3227845,"ECCENTRICITY":0.00102759,"INCLINATION":97.2377,"RA_OF_ASC_NODE":116.7915,"ARG_OF_PERICENTER":187.5492,"MEAN_ANOMALY":172.5597,"EPHEMERIS_TYPE":0,"CLASSIFICATION_TYPE":"U","NORAD_CAT_ID":47424,"ELEMENT_SET_NO":999,"REV_AT_EPOCH":28439,"BSTAR":0.00023985652,"MEAN_MOTION_DOT":7.411e-5,"MEAN_MOTION_DDOT":0}]
